{"fetched_at":"2026-07-10T18:08:34.267Z","source":"https://celestrak.org/NORAD/elements/gp.php?NAME=SPOT&FORMAT=JSON","constellation":"spot","records":[{"OBJECT_NAME":"SPOT 6","OBJECT_ID":"2012-047A","EPOCH":"2026-07-10T07:36:10.727712","CLASSIFICATION_TYPE":"U","MEAN_MOTION":14.58537321,"ECCENTRICITY":0.00011443,"INCLINATION":98.2109,"RA_OF_ASC_NODE":258.354,"ARG_OF_PERICENTER":82.1383,"MEAN_ANOMALY":277.9946,"EPHEMERIS_TYPE":0,"NORAD_CAT_ID":38755,"ELEMENT_SET_NO":999,"REV_AT_EPOCH":73642,"BSTAR":0.000039506879,"MEAN_MOTION_DOT":0.00000138,"MEAN_MOTION_DDOT":0},{"OBJECT_NAME":"SPOT 7","OBJECT_ID":"2014-034A","EPOCH":"2026-07-10T06:17:36.229632","CLASSIFICATION_TYPE":"U","MEAN_MOTION":14.60977732,"ECCENTRICITY":0.00015533,"INCLINATION":98.0618,"RA_OF_ASC_NODE":253.1584,"ARG_OF_PERICENTER":97.9251,"MEAN_ANOMALY":262.2126,"EPHEMERIS_TYPE":0,"NORAD_CAT_ID":40053,"ELEMENT_SET_NO":999,"REV_AT_EPOCH":64050,"BSTAR":0.000012419976,"MEAN_MOTION_DOT":1.6e-7,"MEAN_MOTION_DDOT":0}]}
